STARLINK-2022           
1 47643U 21012Z   24272.95797657  .00006078  00000+0  42664-3 0  9997
2 47643  53.0527 256.2084 0001483  91.9131 268.2028 15.06395666200877
